TRANSPORTER-16 OBJECT CE
1 68492U 26067CE  26105.80829101  .00000953  00000+0  10180-3 0  9992
2 68492  97.7521  65.0248 0001732 257.9732 102.1292 14.91061226  2422
