{
  "norad_id": 68492,
  "name": "TRANSPORTER-16 OBJECT CE",
  "history": [
    {
      "epoch": "2026-04-15T19:23:56.343264Z",
      "apogee_km": 595.832923313249,
      "perigee_km": 593.4175584730037,
      "latitude_deg": -2.72561363805049e-05,
      "longitude_deg": -69.92500339156565,
      "height_km": 597.9201896055841,
      "semi_major_axis_km": 6972.762240893126,
      "eccentricity": 0.0001732,
      "inclination_deg": 97.7521,
      "raan_deg": 65.0248,
      "arg_perigee_deg": 257.9732,
      "mean_anomaly_deg": 102.1292,
      "mean_motion_rev_day": 14.91061226
    }
  ]
}